      3.04          N: GNSS NAV DATA    M: Mixed            RINEX VERSION / TYPE
rineditnav          gnsstk              20211013 180557 UTC PGM / RUN BY / DATE
Merged GPS/GLO/GAL/BDS/QZS/SBAS/IRNSS navigation file       COMMENT
based on CONGO and MGEX tracking data                       COMMENT
DLR/GSOC: O. Montenbruck; P. Steigenberger                  COMMENT
ARL:UT: B. Renfro - Stripped to GAL subset for testing      COMMENT
  E02-E12 were hand-edited (datasources and health) to      COMMENT
  support testing of health detemination                    COMMENT
GAUT   .9313225746D-09  .000000000D+00 345600 2107        0 TIME SYSTEM CORR
GLUT  -.0000000000D+00  .000000000D+00 345600 2107        0 TIME SYSTEM CORR
GPUT  -.9313225746D-09 -.355271368D-14  61440 2108        0 TIME SYSTEM CORR
QZUT  -.9313225746D-09  .000000000D+00   8192 2108        0 TIME SYSTEM CORR
    18     0     0     0                                    LEAP SECONDS
                                                            END OF HEADER
G01 2020 05 29 02 00 00 -.386241357773D-03 -.363797880709D-11  .000000000000D+00
      .480000000000D+02 -.271250000000D+02  .430732227440D-08 -.136556066751D+01
     -.131502747536D-05  .991169631015D-02  .314973294735D-05  .515362366867D+04
      .439200000000D+06  .236555933952D-06  .307291947536D+01  .149011611938D-07
      .980486657159D+00  .325093750000D+03  .781778882126D+00 -.807926510525D-08
      .181078971237D-09  .100000000000D+01  .210700000000D+04  .000000000000D+00
      .200000000000D+01  .000000000000D+00  .512227416039D-08  .480000000000D+02
      .432018000000D+06  .400000000000D+01
